#aP2004 10 26  0  0  0.00000000      96 ORBIT IGb00 HLM  IGS
## 1294 172800.00000000   900.00000000 53304 0.0000000000000
+   29     1  3  4  5  6  7  8  9 10 11 13 14 15 16 17 18 19
+         20 21 22 23 24 25 26 27 28 29 30 31  0  0  0  0  0
+          0  0  0  0  0  0  0  0  0  0  0  0  0  0  0  0  0
+          0  0  0  0  0  0  0  0  0  0  0  0  0  0  0  0  0
+          0  0  0  0  0  0  0  0  0  0  0  0  0  0  0  0  0
++         3  4  3  3  3  3  3  3  3  3  4  4  3  4  3  3  3
++         4  3  3  4  3  3  3  3  4  3  3  4  0  0  0  0  0
++         0  0  0  0  0  0  0  0  0  0  0  0  0  0  0  0  0
++         0  0  0  0  0  0  0  0  0  0  0  0  0  0  0  0  0
++         0  0  0  0  0  0  0  0  0  0  0  0  0  0  0  0  0
%c cc cc ccc ccc cccc cccc cccc cccc ccccc ccccc ccccc ccccc
%c cc cc ccc ccc cccc cccc cccc cccc ccccc ccccc ccccc ccccc
%f  0.0000000  0.000000000  0.00000000000  0.000000000000000
%f  0.0000000  0.000000000  0.00000000000  0.000000000000000
%i    0    0    0    0      0      0      0      0         0
%i    0    0    0    0      0      0      0      0         0
/* FINAL ORBIT COMBINATION FROM WEIGHTED AVERAGE OF:        
/* cod emr esa gfz jpl mit ngs sio                          
/* REFERENCED TO IGS TIME AND TO WEIGHTED MEAN POLE:        
/* CLK ANT Z-OFFSET (M): II/IIA 1.023; IIR 0.000            
*  2004 10 26 11  0  0.00000000
P  1 -22840.211257 -13454.852568   1942.982845    370.091435
P  3 -24159.965098 -11200.561208  -2044.246245     55.391873
P  4   5942.751561  24790.905050  -6809.240935    583.599568
P  5  22578.378619 -12602.033112   5508.501749     56.215134
P  6  11117.791258 -11805.793968 -20854.181682    476.927919
P  7   9085.665982  18040.428005  17738.649271    267.037138
P  8  -1125.559929  26207.928128  -2866.436163    -12.312300
P  9  14503.799933  -5383.250270  21082.757130    -11.657860
P 10  19193.083736   2264.009081 -18397.030887     52.801372
P 11 -15168.164470   7069.373224  20596.271235    160.730850
P 13  -9674.377231  11433.478065 -21986.881564    -19.645345
P 14  -8426.659057 -17625.466722  18050.750001    -30.263537
P 15  -3865.441789 -25413.171152   5844.593685    339.139432
P 16 -13472.068367  -8705.301845 -21101.829584      4.267481
P 17  14422.176088   6200.263218 -21291.671184   -160.430787
P 18  14765.818292 -18545.427743  11767.766918    -90.245158
P 19 -24011.796651  -5380.876722  10038.440502     -6.426036
P 20 -23176.563104  12239.937975   4227.676155   -112.092004
P 21   6204.929071 -23804.937421  -9431.552925     81.420285
P 22   3801.007549 -17990.611364  19335.408963     15.469104
P 23 -20423.252483   3114.245815 -16853.004510    192.272013
P 24  11784.485601  16635.683397 -16672.087064     68.347092
P 25 -10499.104685 -22234.540309  -9641.018962     78.331575
P 26  24809.456611   7480.492336   6832.486603    261.855059
P 27  -4554.983696  23513.027964 -10446.592547    453.180926
P 28  -3181.766934  18175.153975  19192.655044     44.043402
P 29  24876.126097   8801.656122   3781.187321    298.398672
P 30  18784.789200 -18060.243667  -5067.325588    525.881807
P 31   3446.276478  17116.122702  19586.337749     -0.035130
*  2004 10 26 11 15  0.00000000
P  1 -22427.639348 -13467.373707   4804.214854    370.094782
P  3 -23695.580389 -11376.699126  -4782.941342     55.396130
P  4   5710.969906  25438.787544  -4032.973634    583.583374
P  5  22168.730798 -11834.982751   8174.829394     56.216886
P  6  13290.730967 -10802.980463 -20130.822985    476.930635
P  7   7130.220323  17441.916963  19191.724887    267.014444
P  8  -1417.210814  25752.736870  -5696.756520    -12.314593
P  9  14887.400426  -2879.361397  21330.946185    -11.659801
P 10  17467.726794   3572.842542 -19831.442497     52.802050
P 11 -15722.526772   4735.566915  20862.883315    160.733852
P 13 -11894.978719  10362.584337 -21414.163608    -19.644825
P 14  -6436.069270 -16839.333578  19559.835047    -30.264188
P 15  -3614.398837 -25954.373609   3025.598322    339.144225
P 16 -11501.749415 -10175.865283 -21599.284462      4.267511
P 17  14346.724979   8627.659215 -20559.419719   -160.431179
P 18  15901.082369 -19007.595264   9250.927188    -90.248441
P 19 -24780.441894  -6044.300761   7421.230396     -6.426444
P 20 -22794.616662  11661.192899   6991.070554   -112.089343
P 21   6548.941704 -22586.747753 -11915.542283     81.421102
P 22   5636.555079 -19011.553027  17841.545968     15.468261
P 23 -21996.092489   2231.875095 -14897.263457    192.276340
P 24  11701.520168  18488.639430 -14688.683692     68.349473
P 25 -10408.330630 -23272.802676  -7037.292520     78.331506
P 26  25334.520619   7882.442023   4054.939952    261.863530
P 27  -5057.669881  22153.393110 -12843.754514    453.191000
P 28  -4970.359414  19250.237006  17659.690609     44.043857
P 29  25022.376370   9066.964977    908.595308    298.386486
P 30  19286.237654 -18058.146577  -2282.462198    525.874699
P 31   1185.892377  16371.069202  20483.095038     -0.032308
*  2004 10 26 11 30  0.00000000
P  1 -21721.796112 -13380.249661   7583.125548    370.097440
P  3 -22950.855842 -11488.618968  -7440.754675     55.398843
P  4   5468.348254  25779.985258  -1185.883538    583.567382
P  5  21582.009963 -10846.317215  10698.305345     56.218882
P  6  15411.152992  -9939.954679 -19055.975119    476.932675
P  7   5011.960106  16896.760121  20326.732178    266.992204
P  8  -1769.572875  24999.441685  -8427.411170    -12.315660
P  9  15394.878312   -394.551191  21195.543589    -11.662571
P 10  15704.333802   5065.511743 -20928.702275     52.801137
P 11 -16378.918786   2420.014178  20770.082212    160.736998
P 13 -14093.122910   9448.919000 -20474.531973    -19.643903
P 14  -4263.211537 -16110.466778  20733.856808    -30.264867
P 15  -3365.948266 -26183.533630    153.430906    339.149641
P 16  -9582.848763 -11769.359720 -21722.651415      4.267065
P 17  14396.315805  10944.508447 -19471.505570   -160.431448
P 18  16774.364970 -19351.984063   6572.926018    -90.252044
P 19 -25305.371893  -6544.594609   4676.366032     -6.426787
P 20 -22207.304673  10867.543840   9633.880325   -112.086525
P 21   6982.294536 -21118.847460 -14189.864597     81.421444
P 22   7267.175898 -20018.718035  16044.584482     15.468816
P 23 -23393.801046   1516.315336 -12688.000539    192.280520
P 24  11690.268808  20101.241058 -12446.509297     68.352061
P 25 -10297.892284 -24018.253106  -4310.863448     78.331856
P 26  25588.552587   8135.487713   1209.723154    261.872039
P 27  -5684.298758  20561.164598 -15008.045795    453.200803
P 28  -6555.367052  20299.371721  15823.939190     44.044514
P 29  24875.698019   9216.262642  -1979.488443    298.374244
P 30  19549.163263 -17871.347048    541.842988    525.868048
P 31  -1183.084248  15708.509174  21014.728657     -0.029557
*  2004 10 26 11 45  0.00000000
P  1 -20722.031169 -13233.643747  10232.342095    370.099834
P  3 -21929.337740 -11571.651983  -9972.820042     55.402115
P  4   5177.722881  25813.737690   1682.037007    583.551593
P  5  20855.245870  -9628.052550  13034.656859     56.219386
P  6  17433.098388  -9218.472880 -17648.989498    476.935354
P  7   2765.725317  16431.017503  21125.154735    266.969901
P  8  -2215.860007  23969.539494 -11011.080096    -12.315798
P  9  16014.403428   2021.609006  20680.201860    -11.664648
P 10  13947.889552   6724.915462 -21669.510632     52.801441
P 11 -17124.026904    165.286529  20319.948475    160.739879
P 13 -16219.355871   8697.904637 -19183.829295    -19.644670
P 14  -1945.571474 -15469.759423  21552.745809    -30.265574
P 15  -3082.518727 -26100.800866  -2721.446966    339.153024
P 16  -7754.509682 -13455.615074 -21469.679359      4.266944
P 17  14554.556605  13106.575719 -18049.026547   -160.431725
P 18  17391.835367 -19539.572257   3780.261068    -90.255663
P 19 -25559.568829  -6908.954888   1850.959909     -6.427086
P 20 -21451.147805   9844.544480  12110.396895   -112.083594
P 21   7530.110707 -19435.054652 -16215.087952     81.422594
P 22   8676.522581 -20970.895806  13974.733266     15.468575
P 23 -24577.561559    951.099374 -10262.722620    192.284729
P 24  11717.939971  21445.555275  -9985.579196     68.354665
P 25 -10131.324633 -24467.869010  -1509.577669     78.332709
P 26  25552.855156   8273.906957  -1655.619094    261.880044
P 27  -6453.998787  18775.134905 -16899.649492    453.210693
P 28  -7922.191165  21280.065563  13715.887953     44.045011
P 29  24423.800618   9286.452200  -4833.635212    298.362093
P 30  19595.270647 -17471.414371   3356.725252    525.861308
P 31  -3616.395269  15149.272309  21172.416143     -0.026654
EOF
